{
  "norad_id": 51897,
  "name": "STARLINK-3598",
  "history": [
    {
      "epoch": "2026-04-15T13:24:48.113280Z",
      "apogee_km": 540.5637740687271,
      "perigee_km": 538.9214694465209,
      "latitude_deg": 2.261879427479315e-05,
      "longitude_deg": 148.6895214917918,
      "height_km": 540.5741381093522,
      "semi_major_axis_km": 6917.879621757624,
      "eccentricity": 0.0001187,
      "inclination_deg": 53.2177,
      "raan_deg": 193.6092,
      "arg_perigee_deg": 85.4975,
      "mean_anomaly_deg": 274.6153,
      "mean_motion_rev_day": 15.08840251
    },
    {
      "epoch": "2026-04-16T13:15:35.045280Z",
      "apogee_km": 540.6502560572208,
      "perigee_km": 538.8267040806759,
      "latitude_deg": 2.9494228446467434e-05,
      "longitude_deg": 145.55444291477247,
      "height_km": 540.3011759281288,
      "semi_major_axis_km": 6917.8754800689485,
      "eccentricity": 0.0001318,
      "inclination_deg": 53.2177,
      "raan_deg": 189.149,
      "arg_perigee_deg": 68.5634,
      "mean_anomaly_deg": 291.5499,
      "mean_motion_rev_day": 15.08841606
    },
    {
      "epoch": "2026-04-17T11:30:58.886208Z",
      "apogee_km": 540.5331915732495,
      "perigee_km": 538.9427721149241,
      "latitude_deg": -5.831127150316025e-06,
      "longitude_deg": 166.6272338453479,
      "height_km": 540.5484520758424,
      "semi_major_axis_km": 6917.8749818440865,
      "eccentricity": 0.00011495,
      "inclination_deg": 53.2177,
      "raan_deg": 184.9852,
      "arg_perigee_deg": 83.8227,
      "mean_anomaly_deg": 276.2896,
      "mean_motion_rev_day": 15.08841769
    },
    {
      "epoch": "2026-04-18T11:21:45.806112Z",
      "apogee_km": 540.4760926434419,
      "perigee_km": 538.9973279591286,
      "latitude_deg": -2.9489145732443798e-05,
      "longitude_deg": 163.49128177447693,
      "height_km": 540.5873967213377,
      "semi_major_axis_km": 6917.873710301285,
      "eccentricity": 0.00010688,
      "inclination_deg": 53.2175,
      "raan_deg": 180.5241,
      "arg_perigee_deg": 86.4768,
      "mean_anomaly_deg": 273.6346,
      "mean_motion_rev_day": 15.08842185
    },
    {
      "epoch": "2026-04-19T11:12:32.861664Z",
      "apogee_km": 540.571799919032,
      "perigee_km": 538.9173193652286,
      "latitude_deg": 9.004858192813196e-06,
      "longitude_deg": 160.35540797753666,
      "height_km": 540.5893600900529,
      "semi_major_axis_km": 6917.88155964213,
      "eccentricity": 0.00011958,
      "inclination_deg": 53.2177,
      "raan_deg": 176.0636,
      "arg_perigee_deg": 86.4539,
      "mean_anomaly_deg": 273.659,
      "mean_motion_rev_day": 15.08839617
    },
    {
      "epoch": "2026-04-20T11:03:20.665440Z",
      "apogee_km": 540.5278112890155,
      "perigee_km": 539.0102994167137,
      "latitude_deg": 2.4012474838522444e-05,
      "longitude_deg": 157.21608948601184,
      "height_km": 540.5662031752499,
      "semi_major_axis_km": 6917.906055352864,
      "eccentricity": 0.00010968,
      "inclination_deg": 53.2163,
      "raan_deg": 171.6028,
      "arg_perigee_deg": 82.5174,
      "mean_anomaly_deg": 277.5943,
      "mean_motion_rev_day": 15.08831603
    },
    {
      "epoch": "2026-04-21T20:26:26.670048Z",
      "apogee_km": 540.3234074662978,
      "perigee_km": 539.2082415309887,
      "latitude_deg": -2.362899948004462e-05,
      "longitude_deg": 8.825958156003034,
      "height_km": 540.447431847915,
      "semi_major_axis_km": 6917.902824498643,
      "eccentricity": 8.06e-05,
      "inclination_deg": 53.2166,
      "raan_deg": 165.3588,
      "arg_perigee_deg": 67.3366,
      "mean_anomaly_deg": 292.7711,
      "mean_motion_rev_day": 15.0883266
    }
  ]
}